[{"OBJECT_NAME":"NEXSAT-1","OBJECT_ID":"2024-024E","EPOCH":"2026-03-09T22:47:24.778176","MEAN_MOTION":15.32166372,"ECCENTRICITY":0.00099795,"INCLINATION":97.3124,"RA_OF_ASC_NODE":144.1918,"ARG_OF_PERICENTER":108.5709,"MEAN_ANOMALY":251.6617,"EPHEMERIS_TYPE":0,"CLASSIFICATION_TYPE":"U","NORAD_CAT_ID":58921,"ELEMENT_SET_NO":999,"REV_AT_EPOCH":11669,"BSTAR":0.00031433612,"MEAN_MOTION_DOT":9.702e-5,"MEAN_MOTION_DDOT":0},{"OBJECT_NAME":"STARLINK-35656","OBJECT_ID":"2025-257M","EPOCH":"2026-03-09T16:35:23.049600","MEAN_MOTION":15.30200233,"ECCENTRICITY":5.98e-5,"INCLINATION":53.1589,"RA_OF_ASC_NODE":219.8493,"ARG_OF_PERICENTER":71.1473,"MEAN_ANOMALY":288.9592,"EPHEMERIS_TYPE":0,"CLASSIFICATION_TYPE":"U","NORAD_CAT_ID":66391,"ELEMENT_SET_NO":999,"REV_AT_EPOCH":1979,"BSTAR":0.00072513138,"MEAN_MOTION_DOT":0.00021179,"MEAN_MOTION_DDOT":0}]
